[{"OBJECT_NAME":"STARLINK-5164","OBJECT_ID":"2022-141X","EPOCH":"2026-03-09T02:31:25.233888","MEAN_MOTION":15.08783445,"ECCENTRICITY":0.00011106,"INCLINATION":53.2185,"RA_OF_ASC_NODE":6.424,"ARG_OF_PERICENTER":61.6652,"MEAN_ANOMALY":298.4453,"EPHEMERIS_TYPE":0,"CLASSIFICATION_TYPE":"U","NORAD_CAT_ID":54178,"ELEMENT_SET_NO":999,"REV_AT_EPOCH":18577,"BSTAR":-0.0012164166,"MEAN_MOTION_DOT":-0.00019565,"MEAN_MOTION_DDOT":0},{"OBJECT_NAME":"JILIN-01 KUANFU 02B 3","OBJECT_ID":"2024-169C","EPOCH":"2026-03-09T22:06:48.862368","MEAN_MOTION":15.0924242,"ECCENTRICITY":0.00160506,"INCLINATION":97.5557,"RA_OF_ASC_NODE":159.7436,"ARG_OF_PERICENTER":304.8201,"MEAN_ANOMALY":55.1517,"EPHEMERIS_TYPE":0,"CLASSIFICATION_TYPE":"U","NORAD_CAT_ID":61191,"ELEMENT_SET_NO":999,"REV_AT_EPOCH":8085,"BSTAR":0.00039569069,"MEAN_MOTION_DOT":6.253e-5,"MEAN_MOTION_DDOT":0}]
